STARLINK-4774           
1 56138U 23046AY  23295.96336296 -.00001749  00000+0 -11446-3 0  9994
2 56138  43.0021 186.3278 0001299 270.5907  89.4786 15.02524681 31539
STARLINK-5376           
1 56142U 23046BC  23295.95780857 -.00001651  00000+0 -10723-3 0  9993
2 56142  43.0021 186.2856 0001024 281.7053  78.3674 15.02526182 32078
STARLINK-5111           
1 56146U 23046BG  23295.74394509 -.00006752  00000+0 -48536-3 0  9999
2 56146  43.0017 187.2566 0001659 265.0062  95.0591 15.02527275 31500
STARLINK-30113          
1 56291U 23056F   23296.13812216  .00001525  00000+0  12792-3 0  9991
2 56291  43.0018 249.5311 0000750 271.2234  88.8522 15.02528248 28784
STARLINK-30083          
1 56295U 23056K   23296.11209904  .00016396  00000+0  12266-2 0  9994
2 56295  43.0008 224.0267 0001517 281.1760  78.8912 15.02515682 29063
STARLINK-30086          
1 56297U 23056M   23296.16475465  .00000714  00000+0  67891-4 0  9991
2 56297  42.9996 249.6520 0000789 284.1729  75.9026 15.02533753 28772
STARLINK-30111          
1 56302U 23056S   23295.61627919 -.00008286  00000+0 -59911-3 0  9997
2 56302  43.0019 252.4199 0000465 229.9286 130.1515 15.02530892 29350
STARLINK-30097          
1 56303U 23056T   23296.13283471  .00067721  00000+0  32785-2 0  9993
2 56303  43.0005 239.2528 0013924 169.1219 190.9933 15.17620712 28893
STARLINK-30099          
1 56304U 23056U   23295.61294937 -.00003807  00000+0 -26697-3 0  9998
2 56304  43.0002 252.3853 0000431 315.0236  45.0571 15.02532584 29351
STARLINK-6191           
1 56378U 23061E   23296.14728330  .00002030  00000+0  16528-3 0  9990
2 56378  43.0057 236.8561 0001130 265.2783  94.7930 15.02546908 26391
STARLINK-6160           
1 56382U 23061J   23296.14063308  .00003709  00000+0  28947-3 0  9994
2 56382  43.0029 236.8015 0001681 261.6057  98.4595 15.02535708 26398
STARLINK-6166           
1 56383U 23061K   23296.14285800 -.00001463  00000+0 -93291-4 0  9990
2 56383  43.0037 236.8167 0001261 272.7134  87.3564 15.02524993 26396
STARLINK-6153           
1 56384U 23061L   23295.86585286  .00002350  00000+0  18898-3 0  9993
2 56384  43.0029 238.1767 0001453 264.1787  95.8890 15.02532242 26067
STARLINK-6178           
1 56387U 23061P   23296.13508408  .00004421  00000+0  34206-3 0  9990
2 56387  43.0032 236.7571 0000772 104.8999 255.1929 15.02540669 26391
STARLINK-6145           
1 56389U 23061R   23296.12843014  .00000634  00000+0  62021-4 0  9995
2 56389  43.0028 236.7061 0000911 276.0592  84.0147 15.02533009 26399
STARLINK-6256           
1 56401U 23061AD  23295.77558965 -.00001131  00000+0 -68654-4 0  9991
2 56401  43.0046 213.2204 0001132 257.7099 102.3616 15.02524938 26348
STARLINK-6283           
1 56406U 23061AJ  23296.08218648  .00000206  00000+0  30334-4 0  9996
2 56406  43.0033 224.2250 0001536 272.3835  87.6831 15.02523626 26539
STARLINK-6289           
1 56408U 23061AL  23296.07995340 -.00006644  00000+0 -47721-3 0  9999
2 56408  43.0037 224.2091 0001640 269.4310  90.6344 15.02536203 26537
STARLINK-6278           
1 56412U 23061AQ  23295.53593087 -.00004450  00000+0 -31467-3 0  9999
2 56412  43.0034 227.0059 0000946 276.8258  83.2477 15.02527657 26454
STARLINK-6260           
1 56416U 23061AU  23295.50834097  .00053004  00000+0  39472-2 0  9999
2 56416  43.0012 214.6588 0001506 267.9161  92.1508 15.02169831 26595
STARLINK-6224           
1 56425U 23061BD  23295.75561073  .00000230  00000+0  32134-4 0  9990
2 56425  43.0031 213.0656 0001139 260.3979  99.6734 15.02514119 26340
STARLINK-6238           
1 56428U 23061BG  23296.07690675  .00002575  00000+0  20572-3 0  9996
2 56428  43.0031 211.1777 0000805 277.5604  82.5147 15.02522114 26680
STARLINK-5716           
1 56504U 23065B   23296.17476833 -.00000689  00000+0 -35965-4 0  9993
2 56504  43.0023 249.9422 0001332 261.1697  98.8994 15.02532606 25191
STARLINK-5340           
1 56506U 23065D   23296.11411253 -.00001722  00000+0 -11247-3 0  9999
2 56506  43.0040 237.3309 0001483 265.1241  94.9432 15.02512305 25337
STARLINK-5334           
1 56509U 23065G   23295.29722047  .00001136  00000+0  99141-4 0  9993
2 56509  43.0035 254.5366 0001183 263.7929  96.2779 15.02553522 25843
STARLINK-5349           
1 56512U 23065K   23296.16367209 -.00001192  00000+0 -73174-4 0  9991
2 56512  43.0021 249.8571 0000726 279.0253  81.0507 15.02533256 25190
STARLINK-6329           
1 56525U 23065Y   23295.58190585  .00004122  00000+0  31999-3 0  9993
2 56525  43.0031 252.3802 0001033  13.9492 346.1379 15.02537535 25111
STARLINK-6318           
1 56530U 23065AD  23296.09438080 -.00000809  00000+0 -44858-4 0  9990
2 56530  43.0031 224.1596 0001264 258.6273 101.4427 15.02521587 25481
STARLINK-6308           
1 56534U 23065AH  23295.57673510 -.00001523  00000+0 -97791-4 0  9993
2 56534  43.0022 240.1746 0000567 264.3624  95.7154 15.02516175 25253
STARLINK-6136           
1 56540U 23065AP  23295.63491906  .00000157  00000+0  26685-4 0  9998
2 56540  43.0034 265.7883 0000923 282.8186  77.2553 15.02542066 25742
STARLINK-6263           
1 56549U 23065AY  23295.39219427  .00014202  00000+0  10635-2 0  9998
2 56549  43.0029 266.5437 0001371 269.7398  90.3288 15.02562480 25716
STARLINK-6199           
1 56551U 23065BA  23295.65367147 -.00004826  00000+0 -34248-3 0  9993
2 56551  43.0035 265.0645 0000822 287.8136  72.2617 15.02533404 25755
STARLINK-5302           
1 56556U 23065BF  23295.91291970 -.00005587  00000+0 -39892-3 0  9992
2 56556  43.0030 263.5701 0001158 269.9868  90.0841 15.02529394 25791
STARLINK-30127          
1 56699U 23067M   23295.79108553 -.00001174  00000+0 -71853-4 0  9994
2 56699  43.0026 315.9375 0000749 275.7277  84.3480 15.02536614 24952
STARLINK-30053          
1 56700U 23067N   23295.78775628  .00002190  00000+0  17708-3 0  9994
2 56700  43.0013 315.9136 0000604 274.5755  85.5018 15.02540140 24953
STARLINK-30152          
1 56828U 23079F   23296.25001157 -.00039208  00000+0 -29023-2 0  9994
2 56828  43.0010 146.1635 0000860 213.4565 350.4765 15.02553599 21923
STARLINK-30144          
1 56835U 23079N   23296.25001157 -.00020192  00000+0 -14083-2 0  9994
2 56835  43.0013 146.1037 0001053 295.8589 292.7538 15.04491915 21926
STARLINK-6209           
1 56877U 23083B   23295.86841390  .00003105  00000+0  24481-3 0  9999
2 56877  43.0024 123.0045 0001339 271.4236  88.6453 15.02533382 20978
STARLINK-5707           
1 56879U 23083D   23295.87174416  .00002534  00000+0  20263-3 0  9999
2 56879  43.0024 123.0300 0001339 282.4292  77.6400 15.02529684 20978
STARLINK-6177           
1 56880U 23083E   23295.79527837  .00000448  00000+0  48278-4 0  9990
2 56880  43.0027 123.3146 0001591 273.8759  86.1902 15.02533640 20964
STARLINK-5496           
1 56886U 23083L   23295.78195662  .00002655  00000+0  21154-3 0  9997
2 56886  43.0024 123.2128 0001128 269.5494  90.5219 15.02536389 20963
STARLINK-5528           
1 56890U 23083Q   23295.90270082  .00002717  00000+0  21613-3 0  9995
2 56890  43.0028 122.3972 0001324 266.0273  94.0418 15.02538481 20981
STARLINK-6213           
1 56891U 23083R   23295.90825413  .00000315  00000+0  38427-4 0  9994
2 56891  43.0038 122.4390 0001102 269.5739  90.4977 15.02528322 20980
STARLINK-6216           
1 56893U 23083T   23295.90492048  .00005633  00000+0  43166-3 0  9993
2 56893  43.0027 122.4140 0001455 261.6365  98.4313 15.02539627 20186
STARLINK-6195           
1 56902U 23083AC  23295.68256014  .00000139  00000+0  25393-4 0  9999
2 56902  43.0036 111.1880 0000883 268.5377  91.5364 15.02525313 21207
STARLINK-6193           
1 56904U 23083AE  23295.85868509 -.00001633  00000+0 -10588-3 0  9999
2 56904  43.0031 109.9277 0001222 275.5571  84.5132 15.02532218 21129
STARLINK-6098           
1 56906U 23083AG  23295.80663215  .00000087  00000+0  21493-4 0  9991
2 56906  43.0031 110.3988 0001235 265.9293  94.1409 15.02531053 21113
STARLINK-6179           
1 56910U 23083AL  23295.79553120  .00000090  00000+0  21748-4 0  9994
2 56910  43.0032 110.3135 0001255 267.0329  93.0369 15.02533026 21113
STARLINK-6116           
1 56911U 23083AM  23295.80441178  .00001006  00000+0  89556-4 0  9995
2 56911  43.0033 110.3816 0001244 269.7443  90.3257 15.02534063 21113
STARLINK-5805           
1 56912U 23083AN  23295.78998416  .00000572  00000+0  57382-4 0  9994
2 56912  43.0029 110.2705 0001142 265.5039  94.5673 15.02529704 21111
STARLINK-6245           
1 57079U 23088AH  23295.86477737  .00002175  00000+0  17602-3 0  9992
2 57079  43.0021 135.6048 0001478 267.2028  92.8645 15.02534084 19820
STARLINK-6251           
1 57087U 23088AR  23295.84590314  .00001478  00000+0  12448-3 0  9994
2 57087  43.0021 135.4618 0001337 273.8037  86.2652 15.02532968 19821
STARLINK-6262           
1 57091U 23088AV  23295.90573238 -.00000426  00000+0 -16479-4 0  9995
2 57091  43.0025 135.0505 0001092 282.1734  77.8986 15.02522125 19837
STARLINK-6225           
1 57092U 23088AW  23295.90795386 -.00000181  00000+0  16437-5 0  9998
2 57092  43.0029 135.0666 0001057 281.7046  78.3678 15.02520866 19836
STARLINK-6235           
1 57094U 23088AY  23295.83148012  .00000236  00000+0  32530-4 0  9991
2 57094  43.0020 135.3513 0001276 261.0907  98.9791 15.02526684 19820
STARLINK-6097           
1 57105U 23090E   23295.78227071  .00000051  00000+0  18822-4 0  9997
2 57105  43.0025 316.3511 0001237 270.8147  89.2553 15.02536811 19707
STARLINK-6099           
1 57108U 23090H   23295.77893797 -.00003701  00000+0 -25906-3 0  9990
2 57108  43.0030 316.3235 0001227 267.9448  92.1254 15.02536197 19707
STARLINK-6134           
1 57110U 23090K   23295.78005161  .00001280  00000+0  10985-3 0  9993
2 57110  43.0027 316.3335 0001109 267.3842  92.6874 15.02526363 19705
STARLINK-6140           
1 57111U 23090L   23295.75674973 -.00000084  00000+0  88593-5 0  9998
2 57111  43.0017 316.1575 0000864 278.6473  81.4271 15.02523727 19709
STARLINK-6085           
1 57115U 23090Q   23295.55397193  .00007964  00000+0  60364-3 0  9993
2 57115  43.0020 317.2153 0001225 273.5274  86.5428 15.02555657 19679
